IRIDIUM 150             
1 43257U 18030J   23274.55147695  .00000459  00000+0  15688-3 0  9991
2 43257  86.4014 344.0808 0001833  88.9044 271.2362 14.34214527288319
IRIDIUM 143             
1 43258U 18030K   23274.46268250  .00000474  00000+0  16202-3 0  9993
2 43258  86.4019 344.1711 0002062  98.1459 261.9970 14.34215752288230
IRIDIUM 161             
1 43478U 18047C   23274.60988238  .00000573  00000+0  16435-3 0  9994
2 43478  86.4507 142.0892 0002167  82.0177 278.1269 14.43293781282408
IRIDIUM 152             
1 43479U 18047D   23274.57493729  .00000408  00000+0  13855-3 0  9997
2 43479  86.3980 141.9633 0001972  92.5069 267.6353 14.34220358280644
IRIDIUM 147             
1 43480U 18047E   23274.58126695  .00000032  00000+0  44740-5 0  9997
2 43480  86.3982 141.9487 0002311  82.0600 278.0858 14.34213076280643
IRIDIUM 110             
1 43481U 18047F   23274.58762125  .00000093  00000+0  26275-4 0  9991
2 43481  86.3986 142.0122 0002272  78.1756 281.9694 14.34218086280636
IRIDIUM 162             
1 43482U 18047G   23274.60356585  .00000579  00000+0  16610-3 0  9994
2 43482  86.4505 141.9952 0002133  84.1289 276.0155 14.43291975282398
IRIDIUM 160             
1 43569U 18061A   23274.60322916  .00000136  00000+0  41338-4 0  9992
2 43569  86.3922 110.3784 0002264  93.5685 266.5769 14.34217768271535
